{
  "type": "FeatureCollection",
  "features": [
    {
      "type": "Feature",
      "properties": {
        "norad_id": 24876,
        "name": "GPS BIIR-2  (PRN 13)",
        "group": "gps-ops",
        "lat": 33.19758723511389,
        "lon": 132.50856934820646,
        "alt_km": 19931.031705717753,
        "timestamp": "2025-12-03T19:33:07.234768+00:00",
        "meta_object_name": "GPS BIIR-2  (PRN 13)",
        "meta_object_id": "1997-035A",
        "meta_epoch": "2025-12-02T18:15:55.287648",
        "meta_mean_motion": 2.00563455,
        "meta_eccentricity": 0.0096675,
        "meta_inclination": 55.8903,
        "meta_ra_of_asc_node": 106.2592,
        "meta_arg_of_pericenter": 57.0161,
        "meta_mean_anomaly": 303.8791,
        "meta_ephemeris_type": 0,
        "meta_classification_type": "U",
        "meta_norad_cat_id": 24876,
        "meta_element_set_no": 999,
        "meta_rev_at_epoch": 20801,
        "meta_bstar": 0,
        "meta_mean_motion_dot": 2.2e-07,
        "meta_mean_motion_ddot": 0,
        "tle_line1": "1 24876U 97035A   25336.76105657  .00000022  00000+0  00000+0 0  9999",
        "tle_line2": "2 24876  55.8903 106.2592 0096675  57.0161 303.8791  2.00563455208019"
      },
      "geometry": {
        "type": "Point",
        "coordinates": [
          132.50856934820646,
          33.19758723511389
        ]
      }
    },
    {
      "type": "Feature",
      "properties": {
        "norad_id": 26360,
        "name": "GPS BIIR-4  (PRN 20)",
        "group": "gps-ops",
        "lat": 36.81264899744715,
        "lon": 175.6721232736649,
        "alt_km": 20208.86143135987,
        "timestamp": "2025-12-03T19:33:07.234795+00:00",
        "meta_object_name": "GPS BIIR-4  (PRN 20)",
        "meta_object_id": "2000-025A",
        "meta_epoch": "2025-12-03T06:10:25.332960",
        "meta_mean_motion": 2.00568333,
        "meta_eccentricity": 0.0038792,
        "meta_inclination": 55.0396,
        "meta_ra_of_asc_node": 27.2216,
        "meta_arg_of_pericenter": 241.061,
        "meta_mean_anomaly": 209.8997,
        "meta_ephemeris_type": 0,
        "meta_classification_type": "U",
        "meta_norad_cat_id": 26360,
        "meta_element_set_no": 999,
        "meta_rev_at_epoch": 18734,
        "meta_bstar": 0,
        "meta_mean_motion_dot": -7e-07,
        "meta_mean_motion_ddot": 0,
        "tle_line1": "1 26360U 00025A   25337.25723765 -.00000070  00000+0  00000+0 0  9997",
        "tle_line2": "2 26360  55.0396  27.2216 0038792 241.0610 209.8997  2.00568333187347"
      },
      "geometry": {
        "type": "Point",
        "coordinates": [
          175.6721232736649,
          36.81264899744715
        ]
      }
    },
    {
      "type": "Feature",
      "properties": {
        "norad_id": 26407,
        "name": "GPS BIIR-5  (PRN 22)",
        "group": "gps-ops",
        "lat": -21.246594969232802,
        "lon": -152.9252988384458,
        "alt_km": 19898.985617150258,
        "timestamp": "2025-12-03T19:33:07.234812+00:00",
        "meta_object_name": "GPS BIIR-5  (PRN 22)",
        "meta_object_id": "2000-040A",
        "meta_epoch": "2025-12-02T20:35:05.714592",
        "meta_mean_motion": 2.00567701,
        "meta_eccentricity": 0.01265555,
        "meta_inclination": 54.8933,
        "meta_ra_of_asc_node": 222.9621,
        "meta_arg_of_pericenter": 301.6247,
        "meta_mean_anomaly": 60.4206,
        "meta_ephemeris_type": 0,
        "meta_classification_type": "U",
        "meta_norad_cat_id": 26407,
        "meta_element_set_no": 999,
        "meta_rev_at_epoch": 18601,
        "meta_bstar": 0,
        "meta_mean_motion_dot": 5.8e-07,
        "meta_mean_motion_ddot": 0,
        "tle_line1": "1 26407U 00040A   25336.85770503  .00000058  00000+0  00000+0 0  9998",
        "tle_line2": "2 26407  54.8933 222.9621 0126555 301.6247  60.4206  2.00567701186016"
      },
      "geometry": {
        "type": "Point",
        "coordinates": [
          -152.9252988384458,
          -21.246594969232802
        ]
      }
    },
    {
      "type": "Feature",
      "properties": {
        "norad_id": 27663,
        "name": "GPS BIIR-8  (PRN 16)",
        "group": "gps-ops",
        "lat": 50.195630408231125,
        "lon": -14.631365697729441,
        "alt_km": 19967.433100631435,
        "timestamp": "2025-12-03T19:33:07.234826+00:00",
        "meta_object_name": "GPS BIIR-8  (PRN 16)",
        "meta_object_id": "2003-005A",
        "meta_epoch": "2025-12-02T07:21:58.833216",
        "meta_mean_motion": 2.00571367,
        "meta_eccentricity": 0.014703,
        "meta_inclination": 54.9261,
        "meta_ra_of_asc_node": 222.7933,
        "meta_arg_of_pericenter": 51.6544,
        "meta_mean_anomaly": 48.4553,
        "meta_ephemeris_type": 0,
        "meta_classification_type": "U",
        "meta_norad_cat_id": 27663,
        "meta_element_set_no": 999,
        "meta_rev_at_epoch": 16736,
        "meta_bstar": 0,
        "meta_mean_motion_dot": 5.5e-07,
        "meta_mean_motion_ddot": 0,
        "tle_line1": "1 27663U 03005A   25336.30693094  .00000055  00000+0  00000+0 0  9993",
        "tle_line2": "2 27663  54.9261 222.7933 0147030  51.6544  48.4553  2.00571367167364"
      },
      "geometry": {
        "type": "Point",
        "coordinates": [
          -14.631365697729441,
          50.195630408231125
        ]
      }
    },
    {
      "type": "Feature",
      "properties": {
        "norad_id": 28190,
        "name": "GPS BIIR-11 (PRN 19)",
        "group": "gps-ops",
        "lat": -54.99817722232638,
        "lon": -167.9342964069416,
        "alt_km": 20243.86718747175,
        "timestamp": "2025-12-03T19:33:07.234838+00:00",
        "meta_object_name": "GPS BIIR-11 (PRN 19)",
        "meta_object_id": "2004-009A",
        "meta_epoch": "2025-12-03T10:35:53.865888",
        "meta_mean_motion": 2.00560969,
        "meta_eccentricity": 0.0108207,
        "meta_inclination": 54.9946,
        "meta_ra_of_asc_node": 283.5937,
        "meta_arg_of_pericenter": 167.4902,
        "meta_mean_anomaly": 191.0311,
        "meta_ephemeris_type": 0,
        "meta_classification_type": "U",
        "meta_norad_cat_id": 28190,
        "meta_element_set_no": 999,
        "meta_rev_at_epoch": 15901,
        "meta_bstar": 0,
        "meta_mean_motion_dot": -4.4e-07,
        "meta_mean_motion_ddot": 0,
        "tle_line1": "1 28190U 04009A   25337.44159567 -.00000044  00000+0  00000+0 0  9991",
        "tle_line2": "2 28190  54.9946 283.5937 0108207 167.4902 191.0311  2.00560969159012"
      },
      "geometry": {
        "type": "Point",
        "coordinates": [
          -167.9342964069416,
          -54.99817722232638
        ]
      }
    },
    {
      "type": "Feature",
      "properties": {
        "norad_id": 28474,
        "name": "GPS BIIR-13 (PRN 02)",
        "group": "gps-ops",
        "lat": -25.496904142124404,
        "lon": -46.57775918733769,
        "alt_km": 19757.63984215053,
        "timestamp": "2025-12-03T19:33:07.234850+00:00",
        "meta_object_name": "GPS BIIR-13 (PRN 02)",
        "meta_object_id": "2004-045A",
        "meta_epoch": "2025-12-02T14:51:16.748640",
        "meta_mean_motion": 2.00568864,
        "meta_eccentricity": 0.01705399,
        "meta_inclination": 55.2456,
        "meta_ra_of_asc_node": 332.8132,
        "meta_arg_of_pericenter": 308.8127,
        "meta_mean_anomaly": 235.5488,
        "meta_ephemeris_type": 0,
        "meta_classification_type": "U",
        "meta_norad_cat_id": 28474,
        "meta_element_set_no": 999,
        "meta_rev_at_epoch": 15448,
        "meta_bstar": 0,
        "meta_mean_motion_dot": -6.2e-07,
        "meta_mean_motion_ddot": 0,
        "tle_line1": "1 28474U 04045A   25336.61894385 -.00000062  00000+0  00000+0 0  9998",
        "tle_line2": "2 28474  55.2456 332.8132 0170539 308.8127 235.5488  2.00568864154486"
      },
      "geometry": {
        "type": "Point",
        "coordinates": [
          -46.57775918733769,
          -25.496904142124404
        ]
      }
    },
    {
      "type": "Feature",
      "properties": {
        "norad_id": 28874,
        "name": "GPS BIIRM-1 (PRN 17)",
        "group": "gps-ops",
        "lat": -51.91726067415971,
        "lon": -142.05497649206688,
        "alt_km": 19838.710498234446,
        "timestamp": "2025-12-03T19:33:07.234862+00:00",
        "meta_object_name": "GPS BIIRM-1 (PRN 17)",
        "meta_object_id": "2005-038A",
        "meta_epoch": "2025-12-02T16:12:27.400896",
        "meta_mean_motion": 2.00548806,
        "meta_eccentricity": 0.01328204,
        "meta_inclination": 55.0411,
        "meta_ra_of_asc_node": 281.1063,
        "meta_arg_of_pericenter": 293.4087,
        "meta_mean_anomaly": 250.3584,
        "meta_ephemeris_type": 0,
        "meta_classification_type": "U",
        "meta_norad_cat_id": 28874,
        "meta_element_set_no": 999,
        "meta_rev_at_epoch": 14789,
        "meta_bstar": 0,
        "meta_mean_motion_dot": -4.3e-07,
        "meta_mean_motion_ddot": 0,
        "tle_line1": "1 28874U 05038A   25336.67531714 -.00000043  00000+0  00000+0 0  9994",
        "tle_line2": "2 28874  55.0411 281.1063 0132820 293.4087 250.3584  2.00548806147896"
      },
      "geometry": {
        "type": "Point",
        "coordinates": [
          -142.05497649206688,
          -51.91726067415971
        ]
      }
    }
  ]
}